ONEWEB-0461             
1 51649U 22012AD  24343.60413953  .00000121  00000+0  27733-3 0  9997
2 51649  87.9087 116.5356 0001581 102.0760 258.0548 13.17651137140725
ONEWEB-0463             
1 51650U 22012AE  24343.43369710  .00000195  00000+0  46917-3 0  9997
2 51650  87.9091 116.6239 0001629  99.0506 261.0809 13.17651451140485
ONEWEB-0464             
1 51651U 22012AF  24343.53211734  .00000563  00000+0  15769-2 0  9990
2 51651  87.8890 146.9443 0001146  80.9973 279.1284 13.10373634136553
ONEWEB-0468             
1 51652U 22012AG  24343.46240138  .00000497  00000+0  13878-2 0  9998
2 51652  87.8891 146.9505 0001442  92.8497 267.2796 13.10372527136529
ONEWEB-0473             
1 51653U 22012AH  24343.52382603  .00000706  00000+0  19873-2 0  9994
2 51653  87.8890 146.9417 0001651  88.4857 271.6459 13.10375848136539
ONEWEB-0474             
1 51654U 22012AJ  24343.51552068  .00000344  00000+0  94839-3 0  9992
2 51654  87.8884 146.9240 0001356  82.3121 277.8160 13.10376326136524
ONEWEB-0475             
1 51655U 22012AK  24343.44552455  .00000158  00000+0  37334-3 0  9995
2 51655  87.9094 116.6013 0001837  72.0624 288.0708 13.17648961140508
ONEWEB-0490             
1 54113U 22138A   24343.47331387  .00000080  00000+0  16809-3 0  9996
2 54113  87.9184  55.4599 0001630  98.0762 262.0555 13.19727140103534
